[{"OBJECT_NAME":"TIANMU-1 08","OBJECT_ID":"2023-101B","EPOCH":"2026-03-07T00:03:25.475616","MEAN_MOTION":15.29204229,"ECCENTRICITY":0.00063808,"INCLINATION":97.2717,"RA_OF_ASC_NODE":118.7901,"ARG_OF_PERICENTER":134.2174,"MEAN_ANOMALY":225.9592,"EPHEMERIS_TYPE":0,"CLASSIFICATION_TYPE":"U","NORAD_CAT_ID":57400,"ELEMENT_SET_NO":999,"REV_AT_EPOCH":14602,"BSTAR":1.4774513e-5,"MEAN_MOTION_DOT":3.46e-6,"MEAN_MOTION_DDOT":0},{"OBJECT_NAME":"STARLINK-32675","OBJECT_ID":"2024-229S","EPOCH":"2026-03-09T19:58:27.301152","MEAN_MOTION":15.27587577,"ECCENTRICITY":0.00015385,"INCLINATION":43.0001,"RA_OF_ASC_NODE":269.8674,"ARG_OF_PERICENTER":270.3608,"MEAN_ANOMALY":89.7067,"EPHEMERIS_TYPE":0,"CLASSIFICATION_TYPE":"U","NORAD_CAT_ID":62208,"ELEMENT_SET_NO":999,"REV_AT_EPOCH":7058,"BSTAR":0.0010322731,"MEAN_MOTION_DOT":0.00028259,"MEAN_MOTION_DDOT":0}]
